start=new Date('2022-08-17T00:00:00.000Z').valueOf();
sats=[{"FILE":"3538178","APOAPSIS":"541.346","SITE":"AFWTR","TLE_LINE2":"2 52540  53.2166 208.5131 0002236  49.9655 248.4507 15.08822363  1304","MEAN_MOTION":"15.08822363","MEAN_MOTION_DOT":"0.00026416","DECAY_DATE":null,"PERIAPSIS":"538.252","ARG_OF_PERICENTER":"49.9655","CLASSIFICATION_TYPE":"U","PERIOD":"95.439","MEAN_ELEMENT_THEORY":"SGP4","NORAD_CAT_ID":"52540","RCS_SIZE":"LARGE","GP_ID":"210370411","TLE_LINE1":"1 52540U 22051H   22228.91667824  .00026416  00000-0  16724-2 0  9996","OBJECT_NAME":"STARLINK-3940","MEAN_MOTION_DDOT":"0.0000000000000","OBJECT_TYPE":"PAYLOAD","CENTER_NAME":"EARTH","REV_AT_EPOCH":"130","TIME_SYSTEM":"UTC","INCLINATION":"53.2166","RA_OF_ASC_NODE":"208.5131","BSTAR":"0.00167240000000","LAUNCH_DATE":"2022-05-13","ECCENTRICITY":"0.00022360","OBJECT_ID":"2022-051H","COUNTRY_CODE":"US","ELEMENT_SET_NO":"999","EPHEMERIS_TYPE":"0","SEMIMAJOR_AXIS":"6917.934","REF_FRAME":"TEME","EPOCH":"2022-08-16T22:00:00.999936","MEAN_ANOMALY":"248.4507"},{"OBJECT_TYPE":"PAYLOAD","CENTER_NAME":"EARTH","REV_AT_EPOCH":"130","TIME_SYSTEM":"UTC","OBJECT_NAME":"STARLINK-3845","MEAN_MOTION_DDOT":"0.0000000000000","RA_OF_ASC_NODE":"213.5311","INCLINATION":"53.2129","LAUNCH_DATE":"2022-05-13","ECCENTRICITY":"0.00024490","BSTAR":"0.00209780000000","EPHEMERIS_TYPE":"0","REF_FRAME":"TEME","SEMIMAJOR_AXIS":"6917.953","EPOCH":"2022-08-16T22:00:00.999936","MEAN_ANOMALY":"62.8332","OBJECT_ID":"2022-051J","COUNTRY_CODE":"US","ELEMENT_SET_NO":"999","TLE_LINE2":"2 52541  53.2129 213.5311 0002449  48.1194  62.8332 15.08816283  1303","FILE":"3538178","APOAPSIS":"541.512","SITE":"AFWTR","DECAY_DATE":null,"PERIAPSIS":"538.124","MEAN_MOTION":"15.08816283","MEAN_MOTION_DOT":"0.00033235","MEAN_ELEMENT_THEORY":"SGP4","NORAD_CAT_ID":"52541","ARG_OF_PERICENTER":"48.1194","CLASSIFICATION_TYPE":"U","PERIOD":"95.439","TLE_LINE1":"1 52541U 22051J   22228.91667824  .00033235  00000-0  20978-2 0  9990","RCS_SIZE":"LARGE","GP_ID":"210370138"},{"RA_OF_ASC_NODE":"208.5030","INCLINATION":"53.2169","MEAN_MOTION_DDOT":"0.0000000000000","OBJECT_NAME":"STARLINK-3937","TIME_SYSTEM":"UTC","REV_AT_EPOCH":"130","CENTER_NAME":"EARTH","OBJECT_TYPE":"PAYLOAD","COUNTRY_CODE":"US","ELEMENT_SET_NO":"999","OBJECT_ID":"2022-051K","SEMIMAJOR_AXIS":"6917.930","REF_FRAME":"TEME","EPOCH":"2022-08-16T22:00:00.999936","MEAN_ANOMALY":"264.0485","EPHEMERIS_TYPE":"0","BSTAR":"0.00198280000000","ECCENTRICITY":"0.00019550","LAUNCH_DATE":"2022-05-13","MEAN_MOTION_DOT":"0.00031396","MEAN_MOTION":"15.08823821","PERIAPSIS":"538.442","DECAY_DATE":null,"SITE":"AFWTR","FILE":"3538178","APOAPSIS":"541.147","TLE_LINE2":"2 52542  53.2169 208.5030 0001955  54.3744 264.0485 15.08823821  1302","GP_ID":"210370275","RCS_SIZE":"LARGE","TLE_LINE1":"1 52542U 22051K   22228.91667824  .00031396  00000-0  19828-2 0  9999","PERIOD":"95.439","CLASSIFICATION_TYPE":"U","ARG_OF_PERICENTER":"54.3744","MEAN_ELEMENT_THEORY":"SGP4","NORAD_CAT_ID":"52542"},{"RA_OF_ASC_NODE":"208.5260","INCLINATION":"53.2169","MEAN_MOTION_DDOT":"0.0000000000000","OBJECT_NAME":"STARLINK-3926","TIME_SYSTEM":"UTC","CENTER_NAME":"EARTH","REV_AT_EPOCH":"130","OBJECT_TYPE":"PAYLOAD","COUNTRY_CODE":"US","ELEMENT_SET_NO":"999","OBJECT_ID":"2022-051L","EPOCH":"2022-08-16T22:00:00.999936","SEMIMAJOR_AXIS":"6917.907","REF_FRAME":"TEME","MEAN_ANOMALY":"206.2381","EPHEMERIS_TYPE":"0","BSTAR":"0.00185770000000","ECCENTRICITY":"0.00021320","LAUNCH_DATE":"2022-05-13","MEAN_MOTION_DOT":"0.00029394","MEAN_MOTION":"15.08831455","PERIAPSIS":"538.297","DECAY_DATE":null,"SITE":"AFWTR","APOAPSIS":"541.246","FILE":"3538178","TLE_LINE2":"2 52543  53.2169 208.5260 0002132  52.1922 206.2381 15.08831455  1305","GP_ID":"210370684","RCS_SIZE":"LARGE","TLE_LINE1":"1 52543U 22051L   22228.91667824  .00029394  00000-0  18577-2 0  9995","PERIOD":"95.438","CLASSIFICATION_TYPE":"U","ARG_OF_PERICENTER":"52.1922","NORAD_CAT_ID":"52543","MEAN_ELEMENT_THEORY":"SGP4"},{"BSTAR":"-0.00074303000000","LAUNCH_DATE":"2022-05-13","ECCENTRICITY":"0.00022430","OBJECT_ID":"2022-051M","COUNTRY_CODE":"US","ELEMENT_SET_NO":"999","EPHEMERIS_TYPE":"0","REF_FRAME":"TEME","SEMIMAJOR_AXIS":"6917.837","EPOCH":"2022-08-16T22:00:00.999936","MEAN_ANOMALY":"100.8741","OBJECT_NAME":"STARLINK-3944","MEAN_MOTION_DDOT":"0.0000000000000","OBJECT_TYPE":"PAYLOAD","CENTER_NAME":"EARTH","REV_AT_EPOCH":"130","TIME_SYSTEM":"UTC","RA_OF_ASC_NODE":"213.5265","INCLINATION":"53.2156","ARG_OF_PERICENTER":"50.0651","CLASSIFICATION_TYPE":"U","PERIOD":"95.437","MEAN_ELEMENT_THEORY":"SGP4","NORAD_CAT_ID":"52544","RCS_SIZE":"LARGE","GP_ID":"210370003","TLE_LINE1":"1 52544U 22051M   22228.91667824 -.00012099  00000-0 -74303-3 0  9992","APOAPSIS":"541.254","FILE":"3538178","SITE":"AFWTR","TLE_LINE2":"2 52544  53.2156 213.5265 0002243  50.0651 100.8741 15.08854131  1307","MEAN_MOTION":"15.08854131","MEAN_MOTION_DOT":"-0.00012099","DECAY_DATE":null,"PERIAPSIS":"538.151"},{"EPHEMERIS_TYPE":"0","SEMIMAJOR_AXIS":"6918.016","MEAN_ANOMALY":"227.7706","EPOCH":"2022-08-16T22:00:00.999936","REF_FRAME":"TEME","COUNTRY_CODE":"US","OBJECT_ID":"2022-051N","ELEMENT_SET_NO":"999","LAUNCH_DATE":"2022-05-13","ECCENTRICITY":"0.00021480","BSTAR":"0.00098054000000","INCLINATION":"53.2167","RA_OF_ASC_NODE":"208.5138","CENTER_NAME":"EARTH","REV_AT_EPOCH":"130","OBJECT_TYPE":"PAYLOAD","TIME_SYSTEM":"UTC","OBJECT_NAME":"STARLINK-3939","MEAN_MOTION_DDOT":"0.0000000000000","TLE_LINE1":"1 52545U 22051N   22228.91667824  .00015333  00000-0  98054-3 0  9994","GP_ID":"210369731","RCS_SIZE":"LARGE","NORAD_CAT_ID":"52545","MEAN_ELEMENT_THEORY":"SGP4","CLASSIFICATION_TYPE":"U","ARG_OF_PERICENTER":"50.6923","PERIOD":"95.440","DECAY_DATE":null,"PERIAPSIS":"538.395","MEAN_MOTION_DOT":"0.00015333","MEAN_MOTION":"15.08795607","TLE_LINE2":"2 52545  53.2167 208.5138 0002148  50.6923 227.7706 15.08795607  1307","APOAPSIS":"541.367","FILE":"3538178","SITE":"AFWTR"},{"OBJECT_ID":"2022-051P","COUNTRY_CODE":"US","ELEMENT_SET_NO":"999","EPHEMERIS_TYPE":"0","SEMIMAJOR_AXIS":"6917.915","MEAN_ANOMALY":"298.1734","REF_FRAME":"TEME","EPOCH":"2022-08-16T22:00:00.999936","BSTAR":"0.00205960000000","LAUNCH_DATE":"2022-05-13","ECCENTRICITY":"0.00021500","RA_OF_ASC_NODE":"208.5023","INCLINATION":"53.2179","OBJECT_NAME":"STARLINK-3948","MEAN_MOTION_DDOT":"0.0000000000000","OBJECT_TYPE":"PAYLOAD","CENTER_NAME":"EARTH","REV_AT_EPOCH":"130","TIME_SYSTEM":"UTC","RCS_SIZE":"LARGE","GP_ID":"210369867","TLE_LINE1":"1 52546U 22051P   22228.91667824  .00032633  00000-0  20596-2 0  9992","ARG_OF_PERICENTER":"55.0344","CLASSIFICATION_TYPE":"U","PERIOD":"95.438","NORAD_CAT_ID":"52546","MEAN_ELEMENT_THEORY":"SGP4","MEAN_MOTION":"15.08828663","MEAN_MOTION_DOT":"0.00032633","DECAY_DATE":null,"PERIAPSIS":"538.293","FILE":"3538178","APOAPSIS":"541.267","SITE":"AFWTR","TLE_LINE2":"2 52546  53.2179 208.5023 0002150  55.0344 298.1734 15.08828663  1305"},{"TLE_LINE2":"2 52547  53.2146 213.5249 0002256  46.6181  84.3516 15.08816419  1307","SITE":"AFWTR","FILE":"3538178","APOAPSIS":"541.378","PERIAPSIS":"538.257","DECAY_DATE":null,"MEAN_MOTION":"15.08816419","MEAN_MOTION_DOT":"0.00032073","MEAN_ELEMENT_THEORY":"SGP4","NORAD_CAT_ID":"52547","PERIOD":"95.439","ARG_OF_PERICENTER":"46.6181","CLASSIFICATION_TYPE":"U","TLE_LINE1":"1 52547U 22051Q   22228.91667824  .00032073  00000-0  20254-2 0  9992","RCS_SIZE":"LARGE","GP_ID":"210370548","TIME_SYSTEM":"UTC","OBJECT_TYPE":"PAYLOAD","CENTER_NAME":"EARTH","REV_AT_EPOCH":"130","MEAN_MOTION_DDOT":"0.0000000000000","OBJECT_NAME":"STARLINK-3869","INCLINATION":"53.2146","RA_OF_ASC_NODE":"213.5249","ECCENTRICITY":"0.00022560","LAUNCH_DATE":"2022-05-13","BSTAR":"0.00202540000000","EPOCH":"2022-08-16T22:00:00.999936","SEMIMAJOR_AXIS":"6917.952","REF_FRAME":"TEME","MEAN_ANOMALY":"84.3516","EPHEMERIS_TYPE":"0","COUNTRY_CODE":"US","OBJECT_ID":"2022-051Q","ELEMENT_SET_NO":"999"},{"INCLINATION":"53.2177","RA_OF_ASC_NODE":"208.4999","MEAN_MOTION_DDOT":"0.0000000000000","OBJECT_NAME":"STARLINK-3931","TIME_SYSTEM":"UTC","OBJECT_TYPE":"PAYLOAD","CENTER_NAME":"EARTH","REV_AT_EPOCH":"130","COUNTRY_CODE":"US","ELEMENT_SET_NO":"999","OBJECT_ID":"2022-051R","SEMIMAJOR_AXIS":"6917.946","EPOCH":"2022-08-16T22:00:00.999936","REF_FRAME":"TEME","MEAN_ANOMALY":"5.7100","EPHEMERIS_TYPE":"0","BSTAR":"0.00198050000000","ECCENTRICITY":"0.00016190","LAUNCH_DATE":"2022-05-13","MEAN_MOTION":"15.08818645","MEAN_MOTION_DOT":"0.00031354","PERIAPSIS":"538.691","DECAY_DATE":null,"SITE":"AFWTR","APOAPSIS":"540.931","FILE":"3538178","TLE_LINE2":"2 52548  53.2177 208.4999 0001619  72.7500   5.7100 15.08818645  1303","RCS_SIZE":"LARGE","GP_ID":"210370412","TLE_LINE1":"1 52548U 22051R   22228.91667824  .00031354  00000-0  19805-2 0  9994","PERIOD":"95.439","ARG_OF_PERICENTER":"72.7500","CLASSIFICATION_TYPE":"U","MEAN_ELEMENT_THEORY":"SGP4","NORAD_CAT_ID":"52548"},{"MEAN_ELEMENT_THEORY":"SGP4","NORAD_CAT_ID":"52549","PERIOD":"95.439","ARG_OF_PERICENTER":"53.6613","CLASSIFICATION_TYPE":"U","TLE_LINE1":"1 52549U 22051S   22228.91667824  .00031721  00000-0  20034-2 0  9999","RCS_SIZE":"LARGE","GP_ID":"210370139","TLE_LINE2":"2 52549  53.2163 208.5027 0002063  53.6613 284.7622 15.08817974  1301","SITE":"AFWTR","APOAPSIS":"541.240","FILE":"3538178","PERIAPSIS":"538.386","DECAY_DATE":null,"MEAN_MOTION":"15.08817974","MEAN_MOTION_DOT":"0.00031721","ECCENTRICITY":"0.00020630","LAUNCH_DATE":"2022-05-13","BSTAR":"0.00200340000000","REF_FRAME":"TEME","SEMIMAJOR_AXIS":"6917.948","EPOCH":"2022-08-16T22:00:00.999936","MEAN_ANOMALY":"284.7622","EPHEMERIS_TYPE":"0","COUNTRY_CODE":"US","OBJECT_ID":"2022-051S","ELEMENT_SET_NO":"999","TIME_SYSTEM":"UTC","OBJECT_TYPE":"PAYLOAD","CENTER_NAME":"EARTH","REV_AT_EPOCH":"130","MEAN_MOTION_DDOT":"0.0000000000000","OBJECT_NAME":"STARLINK-3935","INCLINATION":"53.2163","RA_OF_ASC_NODE":"208.5027"}];
